{"fetched_at":"2026-07-13T18:16:26.491Z","source":"https://celestrak.org/NORAD/elements/gp.php?GROUP=globalstar&FORMAT=JSON","constellation":"globalstar","records":[{"OBJECT_NAME":"GLOBALSTAR M069","OBJECT_ID":"2007-020C","EPOCH":"2026-07-13T00:01:29.040384","CLASSIFICATION_TYPE":"U","MEAN_MOTION":12.23472161,"ECCENTRICITY":0.00017053,"INCLINATION":52.0009,"RA_OF_ASC_NODE":179.0623,"ARG_OF_PERICENTER":205.4166,"MEAN_ANOMALY":188.5523,"EPHEMERIS_TYPE":0,"NORAD_CAT_ID":31573,"ELEMENT_SET_NO":999,"REV_AT_EPOCH":88196,"BSTAR":0.000057320867,"MEAN_MOTION_DOT":-8.6e-7,"MEAN_MOTION_DDOT":0},{"OBJECT_NAME":"GLOBALSTAR M072","OBJECT_ID":"2007-020D","EPOCH":"2026-07-13T01:55:52.073184","CLASSIFICATION_TYPE":"U","MEAN_MOTION":11.91658704,"ECCENTRICITY":0.00016562,"INCLINATION":51.9946,"RA_OF_ASC_NODE":31.3105,"ARG_OF_PERICENTER":31.2539,"MEAN_ANOMALY":144.7741,"EPHEMERIS_TYPE":0,"NORAD_CAT_ID":31574,"ELEMENT_SET_NO":999,"REV_AT_EPOCH":87806,"BSTAR":0.00015613787,"MEAN_MOTION_DOT":-7.3e-7,"MEAN_MOTION_DDOT":0},{"OBJECT_NAME":"GLOBALSTAR M066","OBJECT_ID":"2007-048C","EPOCH":"2026-07-12T20:25:51.123360","CLASSIFICATION_TYPE":"U","MEAN_MOTION":12.30389166,"ECCENTRICITY":0.00056309,"INCLINATION":51.9611,"RA_OF_ASC_NODE":344.239,"ARG_OF_PERICENTER":97.0286,"MEAN_ANOMALY":66.934,"EPHEMERIS_TYPE":0,"NORAD_CAT_ID":32265,"ELEMENT_SET_NO":999,"REV_AT_EPOCH":86338,"BSTAR":0.00024795796,"MEAN_MOTION_DOT":-6.5e-7,"MEAN_MOTION_DDOT":0},{"OBJECT_NAME":"GLOBALSTAR M079","OBJECT_ID":"2010-054A","EPOCH":"2026-07-13T07:58:04.999584","CLASSIFICATION_TYPE":"U","MEAN_MOTION":12.6226641,"ECCENTRICITY":0.00011139,"INCLINATION":52.0051,"RA_OF_ASC_NODE":29.0813,"ARG_OF_PERICENTER":74.344,"MEAN_ANOMALY":282.3273,"EPHEMERIS_TYPE":0,"NORAD_CAT_ID":37188,"ELEMENT_SET_NO":999,"REV_AT_EPOCH":72584,"BSTAR":0.000013480198,"MEAN_MOTION_DOT":-0.00000101,"MEAN_MOTION_DDOT":0},{"OBJECT_NAME":"GLOBALSTAR M074","OBJECT_ID":"2010-054B","EPOCH":"2026-07-12T17:50:28.165920","CLASSIFICATION_TYPE":"U","MEAN_MOTION":12.62262035,"ECCENTRICITY":0.0000869,"INCLINATION":52.0029,"RA_OF_ASC_NODE":30.1345,"ARG_OF_PERICENTER":90.1164,"MEAN_ANOMALY":350.4825,"EPHEMERIS_TYPE":0,"NORAD_CAT_ID":37189,"ELEMENT_SET_NO":999,"REV_AT_EPOCH":72638,"BSTAR":0.000036171273,"MEAN_MOTION_DOT":-9.7e-7,"MEAN_MOTION_DDOT":0},{"OBJECT_NAME":"GLOBALSTAR M076","OBJECT_ID":"2010-054C","EPOCH":"2026-07-12T22:37:45.631200","CLASSIFICATION_TYPE":"U","MEAN_MOTION":12.62262283,"ECCENTRICITY":0.0001098,"INCLINATION":52.0044,"RA_OF_ASC_NODE":29.7329,"ARG_OF_PERICENTER":86.3095,"MEAN_ANOMALY":61.2249,"EPHEMERIS_TYPE":0,"NORAD_CAT_ID":37190,"ELEMENT_SET_NO":999,"REV_AT_EPOCH":72612,"BSTAR":0.000096635536,"MEAN_MOTION_DOT":-8.6e-7,"MEAN_MOTION_DDOT":0},{"OBJECT_NAME":"GLOBALSTAR M077","OBJECT_ID":"2010-054D","EPOCH":"2026-07-13T06:14:01.402944","CLASSIFICATION_TYPE":"U","MEAN_MOTION":11.67547614,"ECCENTRICITY":0.00023026,"INCLINATION":51.9951,"RA_OF_ASC_NODE":113.119,"ARG_OF_PERICENTER":221.6558,"MEAN_ANOMALY":307.2346,"EPHEMERIS_TYPE":0,"NORAD_CAT_ID":37191,"ELEMENT_SET_NO":999,"REV_AT_EPOCH":72418,"BSTAR":-0.000271935,"MEAN_MOTION_DOT":-9.3e-7,"MEAN_MOTION_DDOT":0},{"OBJECT_NAME":"GLOBALSTAR M075","OBJECT_ID":"2010-054E","EPOCH":"2026-07-13T00:48:09.897696","CLASSIFICATION_TYPE":"U","MEAN_MOTION":12.62267797,"ECCENTRICITY":0.00007186,"INCLINATION":51.995,"RA_OF_ASC_NODE":71.4966,"ARG_OF_PERICENTER":61.9364,"MEAN_ANOMALY":77.7815,"EPHEMERIS_TYPE":0,"NORAD_CAT_ID":37192,"ELEMENT_SET_NO":999,"REV_AT_EPOCH":72520,"BSTAR":0.000024892418,"MEAN_MOTION_DOT":-9.9e-7,"MEAN_MOTION_DDOT":0},{"OBJECT_NAME":"GLOBALSTAR M073","OBJECT_ID":"2010-054F","EPOCH":"2026-07-12T21:08:24.730656","CLASSIFICATION_TYPE":"U","MEAN_MOTION":12.62266872,"ECCENTRICITY":0.00010873,"INCLINATION":52.008,"RA_OF_ASC_NODE":346.0817,"ARG_OF_PERICENTER":93.1551,"MEAN_ANOMALY":71.1005,"EPHEMERIS_TYPE":0,"NORAD_CAT_ID":37193,"ELEMENT_SET_NO":999,"REV_AT_EPOCH":72717,"BSTAR":-0.000003557947,"MEAN_MOTION_DOT":-0.00000104,"MEAN_MOTION_DDOT":0},{"OBJECT_NAME":"GLOBALSTAR M083","OBJECT_ID":"2011-033A","EPOCH":"2026-07-13T06:12:48.686112","CLASSIFICATION_TYPE":"U","MEAN_MOTION":12.62264038,"ECCENTRICITY":0.00008167,"INCLINATION":51.9869,"RA_OF_ASC_NODE":293.1252,"ARG_OF_PERICENTER":103.7225,"MEAN_ANOMALY":280.5961,"EPHEMERIS_TYPE":0,"NORAD_CAT_ID":37739,"ELEMENT_SET_NO":999,"REV_AT_EPOCH":69624,"BSTAR":0.00010803387,"MEAN_MOTION_DOT":-8.4e-7,"MEAN_MOTION_DDOT":0},{"OBJECT_NAME":"GLOBALSTAR M088","OBJECT_ID":"2011-033B","EPOCH":"2026-07-13T07:54:06.801696","CLASSIFICATION_TYPE":"U","MEAN_MOTION":12.62269447,"ECCENTRICITY":0.00000812,"INCLINATION":52.0186,"RA_OF_ASC_NODE":199.4005,"ARG_OF_PERICENTER":149.8408,"MEAN_ANOMALY":312.9857,"EPHEMERIS_TYPE":0,"NORAD_CAT_ID":37740,"ELEMENT_SET_NO":999,"REV_AT_EPOCH":69179,"BSTAR":0.000068133243,"MEAN_MOTION_DOT":-9.2e-7,"MEAN_MOTION_DDOT":0},{"OBJECT_NAME":"GLOBALSTAR M091","OBJECT_ID":"2011-033C","EPOCH":"2026-07-13T06:30:02.365344","CLASSIFICATION_TYPE":"U","MEAN_MOTION":12.62264251,"ECCENTRICITY":0.00003832,"INCLINATION":51.9977,"RA_OF_ASC_NODE":162.5044,"ARG_OF_PERICENTER":20.3238,"MEAN_ANOMALY":117.6967,"EPHEMERIS_TYPE":0,"NORAD_CAT_ID":37741,"ELEMENT_SET_NO":999,"REV_AT_EPOCH":69257,"BSTAR":-0.000059616969,"MEAN_MOTION_DOT":-0.00000114,"MEAN_MOTION_DDOT":0},{"OBJECT_NAME":"GLOBALSTAR M085","OBJECT_ID":"2011-033D","EPOCH":"2026-07-13T06:20:35.665152","CLASSIFICATION_TYPE":"U","MEAN_MOTION":12.62264316,"ECCENTRICITY":0.00007466,"INCLINATION":52.0122,"RA_OF_ASC_NODE":113.8395,"ARG_OF_PERICENTER":38.3068,"MEAN_ANOMALY":129.9147,"EPHEMERIS_TYPE":0,"NORAD_CAT_ID":37742,"ELEMENT_SET_NO":999,"REV_AT_EPOCH":69308,"BSTAR":-0.00005651955,"MEAN_MOTION_DOT":-0.00000114,"MEAN_MOTION_DDOT":0},{"OBJECT_NAME":"GLOBALSTAR M081","OBJECT_ID":"2011-033E","EPOCH":"2026-07-13T04:58:34.194144","CLASSIFICATION_TYPE":"U","MEAN_MOTION":12.62265286,"ECCENTRICITY":0.00006349,"INCLINATION":51.9951,"RA_OF_ASC_NODE":116.4193,"ARG_OF_PERICENTER":52.1765,"MEAN_ANOMALY":96.9089,"EPHEMERIS_TYPE":0,"NORAD_CAT_ID":37743,"ELEMENT_SET_NO":999,"REV_AT_EPOCH":69322,"BSTAR":-0.00010446786,"MEAN_MOTION_DOT":-0.00000122,"MEAN_MOTION_DDOT":0},{"OBJECT_NAME":"GLOBALSTAR M089","OBJECT_ID":"2011-033F","EPOCH":"2026-07-13T02:07:42.853152","CLASSIFICATION_TYPE":"U","MEAN_MOTION":12.62267557,"ECCENTRICITY":0.00006812,"INCLINATION":51.9933,"RA_OF_ASC_NODE":70.9345,"ARG_OF_PERICENTER":87.1405,"MEAN_ANOMALY":63.6032,"EPHEMERIS_TYPE":0,"NORAD_CAT_ID":37744,"ELEMENT_SET_NO":999,"REV_AT_EPOCH":69405,"BSTAR":0.000022594661,"MEAN_MOTION_DOT":-0.000001,"MEAN_MOTION_DDOT":0},{"OBJECT_NAME":"GLOBALSTAR M084","OBJECT_ID":"2011-080A","EPOCH":"2026-07-11T08:01:02.931744","CLASSIFICATION_TYPE":"U","MEAN_MOTION":12.62267887,"ECCENTRICITY":0.00009392,"INCLINATION":52.0028,"RA_OF_ASC_NODE":303.7724,"ARG_OF_PERICENTER":123.2364,"MEAN_ANOMALY":270.2173,"EPHEMERIS_TYPE":0,"NORAD_CAT_ID":38040,"ELEMENT_SET_NO":999,"REV_AT_EPOCH":67181,"BSTAR":0.000036683377,"MEAN_MOTION_DOT":-9.7e-7,"MEAN_MOTION_DDOT":0}]}
